QIANFAN-57              
1 62787U 25016C   25298.31295986  .00000062  00000+0  77770-4 0  9992
2 62787  88.9748 108.1977 0000991  76.2615 283.8647 13.50976420 40666
QIANFAN-58              
1 62788U 25016D   25298.28413298  .00000070  00000+0  89268-4 0  9991
2 62788  88.9718 108.0472 0015360 120.0706 240.1971 13.50976047 40704
QIANFAN-59              
1 62789U 25016E   25298.30880967  .00000064  00000+0  79784-4 0  9991
2 62789  88.9741 108.1068 0015687 123.5186 236.7466 13.50975434 40704
QIANFAN-60              
1 62790U 25016F   25298.26780041  .00000050  00000+0  58638-4 0  9990
2 62790  88.9722 108.0918 0017268 120.7035 239.5820 13.50972087 40680
QIANFAN-61              
1 62791U 25016G   25298.30055541  .00000056  00000+0  68483-4 0  9991
2 62791  88.9790 108.2184 0016217 119.8823 240.3941 13.50975718 40701
QIANFAN-62              
1 62792U 25016H   25298.30484426  .00000056  00000+0  67066-4 0  9996
2 62792  88.9736 108.1126 0017585 120.4612 239.8279 13.50969630 40691
QIANFAN-63              
1 62793U 25016J   25298.25534671  .00000055  00000+0  66748-4 0  9994
2 62793  88.9743 108.0659 0017566 125.5083 234.7710 13.50972588 40721
QIANFAN-64              
1 62794U 25016K   25298.29647059  .00000064  00000+0  80005-4 0  9996
2 62794  88.9729 108.0423 0015609 118.5598 241.7127 13.50974313 40722
